[{"OBJECT_NAME":"LIDE","OBJECT_ID":"2025-154A","EPOCH":"2026-03-09T17:40:09.364800","MEAN_MOTION":14.93720025,"ECCENTRICITY":0.00054258,"INCLINATION":97.682,"RA_OF_ASC_NODE":134.8153,"ARG_OF_PERICENTER":185.342,"MEAN_ANOMALY":174.7743,"EPHEMERIS_TYPE":0,"CLASSIFICATION_TYPE":"U","NORAD_CAT_ID":64869,"ELEMENT_SET_NO":999,"REV_AT_EPOCH":3415,"BSTAR":0.00043353011,"MEAN_MOTION_DOT":4.535e-5,"MEAN_MOTION_DDOT":0},{"OBJECT_NAME":"ELECTRON KICK STAGE R\/B","OBJECT_ID":"2022-091C","EPOCH":"2026-03-09T22:17:33.094464","MEAN_MOTION":14.92016508,"ECCENTRICITY":0.00071989,"INCLINATION":70.0056,"RA_OF_ASC_NODE":12.42,"ARG_OF_PERICENTER":264.2776,"MEAN_ANOMALY":95.7559,"EPHEMERIS_TYPE":0,"CLASSIFICATION_TYPE":"U","NORAD_CAT_ID":53354,"ELEMENT_SET_NO":999,"REV_AT_EPOCH":9957,"BSTAR":0.00058954336,"MEAN_MOTION_DOT":5.909e-5,"MEAN_MOTION_DDOT":0}]
